CCSDS_OMM_VERS = 2.0
CREATION_DATE  = 
ORIGINATOR     = 

OBJECT_NAME    = PROGRESS-MS 32
OBJECT_ID      = 2025-204A
CENTER_NAME    = EARTH
REF_FRAME      = TEME
TIME_SYSTEM    = UTC
MEAN_ELEMENT_THEORY = SGP/SGP4

EPOCH          = 2025-11-30T13:03:31.260384
MEAN_MOTION    = 15.49206888
ECCENTRICITY   = .00036901
INCLINATION    = 51.6312
RA_OF_ASC_NODE = 202.8529
ARG_OF_PERICENTER = 187.0517
MEAN_ANOMALY   = 173.0420

EPHEMERIS_TYPE = 0
CLASSIFICATION_TYPE = U
NORAD_CAT_ID   = 65586
ELEMENT_SET_NO = 999
REV_AT_EPOCH   = 27
BSTAR          = .15180088E-3
MEAN_MOTION_DOT = .7982E-4
MEAN_MOTION_DDOT = 0

CCSDS_OMM_VERS = 2.0
CREATION_DATE  = 
ORIGINATOR     = 

OBJECT_NAME    = CYGNUS NG-23
OBJECT_ID      = 2025-208A
CENTER_NAME    = EARTH
REF_FRAME      = TEME
TIME_SYSTEM    = UTC
MEAN_ELEMENT_THEORY = SGP/SGP4

EPOCH          = 2025-11-30T13:03:31.260384
MEAN_MOTION    = 15.49206888
ECCENTRICITY   = .00036901
INCLINATION    = 51.6312
RA_OF_ASC_NODE = 202.8529
ARG_OF_PERICENTER = 187.0517
MEAN_ANOMALY   = 173.0420

EPHEMERIS_TYPE = 0
CLASSIFICATION_TYPE = U
NORAD_CAT_ID   = 65616
ELEMENT_SET_NO = 999
REV_AT_EPOCH   = 22
BSTAR          = .15180088E-3
MEAN_MOTION_DOT = .7982E-4
MEAN_MOTION_DDOT = 0

CCSDS_OMM_VERS = 2.0
CREATION_DATE  = 
ORIGINATOR     = 

OBJECT_NAME    = DRAGONFLY
OBJECT_ID      = 1998-067XH
CENTER_NAME    = EARTH
REF_FRAME      = TEME
TIME_SYSTEM    = UTC
MEAN_ELEMENT_THEORY = SGP/SGP4

EPOCH          = 2025-11-30T01:36:53.129376
MEAN_MOTION    = 15.67290907
ECCENTRICITY   = .00064505
INCLINATION    = 51.6265
RA_OF_ASC_NODE = 200.4173
ARG_OF_PERICENTER = 201.2290
MEAN_ANOMALY   = 158.8439

EPHEMERIS_TYPE = 0
CLASSIFICATION_TYPE = U
NORAD_CAT_ID   = 65729
ELEMENT_SET_NO = 999
REV_AT_EPOCH   = 1117
BSTAR          = .12301051E-2
MEAN_MOTION_DOT = .136962E-2
MEAN_MOTION_DDOT = 0

CCSDS_OMM_VERS = 2.0
CREATION_DATE  = 
ORIGINATOR     = 

OBJECT_NAME    = 1998-067XJ
OBJECT_ID      = 1998-067XJ
CENTER_NAME    = EARTH
REF_FRAME      = TEME
TIME_SYSTEM    = UTC
MEAN_ELEMENT_THEORY = SGP/SGP4

EPOCH          = 2025-11-30T00:49:22.590336
MEAN_MOTION    = 16.04584786
ECCENTRICITY   = .00114805
INCLINATION    = 51.6143
RA_OF_ASC_NODE = 195.6214
ARG_OF_PERICENTER = 220.5612
MEAN_ANOMALY   = 139.4546

EPHEMERIS_TYPE = 0
CLASSIFICATION_TYPE = U
NORAD_CAT_ID   = 65730
ELEMENT_SET_NO = 999
REV_AT_EPOCH   = 1123
BSTAR          = .27121036E-2
MEAN_MOTION_DOT = .1821158E-1
MEAN_MOTION_DDOT = .2298315E-2

CCSDS_OMM_VERS = 2.0
CREATION_DATE  = 
ORIGINATOR     = 

OBJECT_NAME    = 1998-067XK
OBJECT_ID      = 1998-067XK
CENTER_NAME    = EARTH
REF_FRAME      = TEME
TIME_SYSTEM    = UTC
MEAN_ELEMENT_THEORY = SGP/SGP4

EPOCH          = 2025-11-30T00:29:54.194496
MEAN_MOTION    = 15.62876971
ECCENTRICITY   = .00059925
INCLINATION    = 51.6290
RA_OF_ASC_NODE = 201.6160
ARG_OF_PERICENTER = 174.9051
MEAN_ANOMALY   = 185.2005

EPHEMERIS_TYPE = 0
CLASSIFICATION_TYPE = U
NORAD_CAT_ID   = 65731
ELEMENT_SET_NO = 999
REV_AT_EPOCH   = 1115
BSTAR          = .94044278E-3
MEAN_MOTION_DOT = .87103E-3
MEAN_MOTION_DDOT = 0

CCSDS_OMM_VERS = 2.0
CREATION_DATE  = 
ORIGINATOR     = 

OBJECT_NAME    = RSP-03
OBJECT_ID      = 1998-067XL
CENTER_NAME    = EARTH
REF_FRAME      = TEME
TIME_SYSTEM    = UTC
MEAN_ELEMENT_THEORY = SGP/SGP4

EPOCH          = 2025-11-30T01:05:34.522944
MEAN_MOTION    = 15.64963038
ECCENTRICITY   = .00069107
INCLINATION    = 51.6275
RA_OF_ASC_NODE = 201.0258
ARG_OF_PERICENTER = 178.3876
MEAN_ANOMALY   = 181.7143

EPHEMERIS_TYPE = 0
CLASSIFICATION_TYPE = U
NORAD_CAT_ID   = 65732
ELEMENT_SET_NO = 999
REV_AT_EPOCH   = 1117
BSTAR          = .11085229E-2
MEAN_MOTION_DOT = .111988E-2
MEAN_MOTION_DDOT = 0

CCSDS_OMM_VERS = 2.0
CREATION_DATE  = 
ORIGINATOR     = 

OBJECT_NAME    = GHS-01
OBJECT_ID      = 1998-067XM
CENTER_NAME    = EARTH
REF_FRAME      = TEME
TIME_SYSTEM    = UTC
MEAN_ELEMENT_THEORY = SGP/SGP4

EPOCH          = 2025-11-30T08:32:28.208256
MEAN_MOTION    = 15.69211694
ECCENTRICITY   = .00068781
INCLINATION    = 51.6287
RA_OF_ASC_NODE = 198.6005
ARG_OF_PERICENTER = 201.6780
MEAN_ANOMALY   = 158.3927

EPHEMERIS_TYPE = 0
CLASSIFICATION_TYPE = U
NORAD_CAT_ID   = 65733
ELEMENT_SET_NO = 999
REV_AT_EPOCH   = 1123
BSTAR          = .14051989E-2
MEAN_MOTION_DOT = .170079E-2
MEAN_MOTION_DDOT = 0

CCSDS_OMM_VERS = 2.0
CREATION_DATE  = 
ORIGINATOR     = 

OBJECT_NAME    = YOTSUBA-KULOVER
OBJECT_ID      = 1998-067XN
CENTER_NAME    = EARTH
REF_FRAME      = TEME
TIME_SYSTEM    = UTC
MEAN_ELEMENT_THEORY = SGP/SGP4

EPOCH          = 2025-11-29T08:58:08.056704
MEAN_MOTION    = 15.57263891
ECCENTRICITY   = .00023723
INCLINATION    = 51.6289
RA_OF_ASC_NODE = 207.0418
ARG_OF_PERICENTER = 147.8158
MEAN_ANOMALY   = 212.2979

EPHEMERIS_TYPE = 0
CLASSIFICATION_TYPE = U
NORAD_CAT_ID   = 65941
ELEMENT_SET_NO = 999
REV_AT_EPOCH   = 777
BSTAR          = .7903507E-3
MEAN_MOTION_DOT = .58681E-3
MEAN_MOTION_DDOT = 0

CCSDS_OMM_VERS = 2.0
CREATION_DATE  = 
ORIGINATOR     = 

OBJECT_NAME    = BOTAN
OBJECT_ID      = 1998-067XP
CENTER_NAME    = EARTH
REF_FRAME      = TEME
TIME_SYSTEM    = UTC
MEAN_ELEMENT_THEORY = SGP/SGP4

EPOCH          = 2025-11-30T08:45:14.553792
MEAN_MOTION    = 15.59824542
ECCENTRICITY   = .00045642
INCLINATION    = 51.6296
RA_OF_ASC_NODE = 201.6606
ARG_OF_PERICENTER = 157.9332
MEAN_ANOMALY   = 202.1859

EPHEMERIS_TYPE = 0
CLASSIFICATION_TYPE = U
NORAD_CAT_ID   = 65942
ELEMENT_SET_NO = 999
REV_AT_EPOCH   = 793
BSTAR          = .11759545E-2
MEAN_MOTION_DOT = .96969E-3
MEAN_MOTION_DDOT = 0

CCSDS_OMM_VERS = 2.0
CREATION_DATE  = 
ORIGINATOR     = 

OBJECT_NAME    = E-KAGAKU-1
OBJECT_ID      = 1998-067XQ
CENTER_NAME    = EARTH
REF_FRAME      = TEME
TIME_SYSTEM    = UTC
MEAN_ELEMENT_THEORY = SGP/SGP4

EPOCH          = 2025-11-30T00:21:52.984512
MEAN_MOTION    = 15.57324386
ECCENTRICITY   = .00037836
INCLINATION    = 51.6305
RA_OF_ASC_NODE = 203.8267
ARG_OF_PERICENTER = 135.1166
MEAN_ANOMALY   = 225.0132

EPHEMERIS_TYPE = 0
CLASSIFICATION_TYPE = U
NORAD_CAT_ID   = 65943
ELEMENT_SET_NO = 999
REV_AT_EPOCH   = 787
BSTAR          = .87589433E-3
MEAN_MOTION_DOT = .65299E-3
MEAN_MOTION_DDOT = 0

CCSDS_OMM_VERS = 2.0
CREATION_DATE  = 
ORIGINATOR     = 

OBJECT_NAME    = HRC MONOBLOCK CAMERA
OBJECT_ID      = 1998-067XR
CENTER_NAME    = EARTH
REF_FRAME      = TEME
TIME_SYSTEM    = UTC
MEAN_ELEMENT_THEORY = SGP/SGP4

EPOCH          = 2025-11-30T08:45:13.490208
MEAN_MOTION    = 15.52986760
ECCENTRICITY   = .00045696
INCLINATION    = 51.6305
RA_OF_ASC_NODE = 203.1547
ARG_OF_PERICENTER = 134.7899
MEAN_ANOMALY   = 225.3463

EPHEMERIS_TYPE = 0
CLASSIFICATION_TYPE = U
NORAD_CAT_ID   = 66052
ELEMENT_SET_NO = 999
REV_AT_EPOCH   = 691
BSTAR          = .58422747E-3
MEAN_MOTION_DOT = .36812E-3
MEAN_MOTION_DDOT = 0

CCSDS_OMM_VERS = 2.0
CREATION_DATE  = 
ORIGINATOR     = 

OBJECT_NAME    = HTV-X1
OBJECT_ID      = 2025-241A
CENTER_NAME    = EARTH
REF_FRAME      = TEME
TIME_SYSTEM    = UTC
MEAN_ELEMENT_THEORY = SGP/SGP4

EPOCH          = 2025-11-30T13:03:31.260384
MEAN_MOTION    = 15.49206888
ECCENTRICITY   = .00036901
INCLINATION    = 51.6312
RA_OF_ASC_NODE = 202.8529
ARG_OF_PERICENTER = 187.0517
MEAN_ANOMALY   = 173.0420

EPHEMERIS_TYPE = 0
CLASSIFICATION_TYPE = U
NORAD_CAT_ID   = 66174
ELEMENT_SET_NO = 999
REV_AT_EPOCH   = 51
BSTAR          = .15180088E-3
MEAN_MOTION_DOT = .7982E-4
MEAN_MOTION_DDOT = 0

